{
  "type": "FeatureCollection",
  "features": [
    {
      "type": "Feature",
      "properties": {
        "norad_id": 39583,
        "name": "COSMOS 2251 DEB",
        "group": "cosmos-2251-debris",
        "lat": 71.12945156500231,
        "lon": -18.21457683272751,
        "alt_km": 745.6079823361079,
        "timestamp": "2025-12-27T06:41:31.324007+00:00",
        "meta_object_name": "COSMOS 2251 DEB",
        "meta_object_id": "1993-036BUN",
        "meta_epoch": "2025-12-24T09:12:01.945440",
        "meta_mean_motion": 14.60635588,
        "meta_eccentricity": 0.01369797,
        "meta_inclination": 73.9311,
        "meta_ra_of_asc_node": 224.8404,
        "meta_arg_of_pericenter": 335.8722,
        "meta_mean_anomaly": 23.6064,
        "meta_ephemeris_type": 0,
        "meta_classification_type": "U",
        "meta_norad_cat_id": 39583,
        "meta_element_set_no": 999,
        "meta_rev_at_epoch": 61949,
        "meta_bstar": 0.0015752368,
        "meta_mean_motion_dot": 8.73e-05,
        "meta_mean_motion_ddot": 0,
        "tle_line1": "1 39583U 93036BUN 25358.38335585  .00008730  00000+0  15752-2 0  9991",
        "tle_line2": "2 39583  73.9311 224.8404 0136979 335.8722  23.6064 14.60635588619499"
      },
      "geometry": {
        "type": "Point",
        "coordinates": [
          -18.21457683272751,
          71.12945156500231
        ]
      }
    },
    {
      "type": "Feature",
      "properties": {
        "norad_id": 39585,
        "name": "COSMOS 2251 DEB",
        "group": "cosmos-2251-debris",
        "lat": -5.715909730169361,
        "lon": 95.28107735949226,
        "alt_km": 742.997748988445,
        "timestamp": "2025-12-27T06:41:31.324017+00:00",
        "meta_object_name": "COSMOS 2251 DEB",
        "meta_object_id": "1993-036BUQ",
        "meta_epoch": "2025-12-25T02:49:16.282848",
        "meta_mean_motion": 14.58700327,
        "meta_eccentricity": 0.00658821,
        "meta_inclination": 74.0412,
        "meta_ra_of_asc_node": 277.7526,
        "meta_arg_of_pericenter": 35.2218,
        "meta_mean_anomaly": 325.3273,
        "meta_ephemeris_type": 0,
        "meta_classification_type": "U",
        "meta_norad_cat_id": 39585,
        "meta_element_set_no": 999,
        "meta_rev_at_epoch": 62701,
        "meta_bstar": 0.00028775805,
        "meta_mean_motion_dot": 1.352e-05,
        "meta_mean_motion_ddot": 0,
        "tle_line1": "1 39585U 93036BUQ 25359.11754957  .00001352  00000+0  28776-3 0  9997",
        "tle_line2": "2 39585  74.0412 277.7526 0065882  35.2218 325.3273 14.58700327627014"
      },
      "geometry": {
        "type": "Point",
        "coordinates": [
          95.28107735949226,
          -5.715909730169361
        ]
      }
    },
    {
      "type": "Feature",
      "properties": {
        "norad_id": 39586,
        "name": "COSMOS 2251 DEB",
        "group": "cosmos-2251-debris",
        "lat": -1.9397661952240002,
        "lon": 22.707996729889253,
        "alt_km": 887.598583931579,
        "timestamp": "2025-12-27T06:41:31.324027+00:00",
        "meta_object_name": "COSMOS 2251 DEB",
        "meta_object_id": "1993-036BUR",
        "meta_epoch": "2025-12-15T23:50:08.053728",
        "meta_mean_motion": 14.21232237,
        "meta_eccentricity": 0.01008868,
        "meta_inclination": 74.0082,
        "meta_ra_of_asc_node": 222.4068,
        "meta_arg_of_pericenter": 356.2296,
        "meta_mean_anomaly": 66.1426,
        "meta_ephemeris_type": 0,
        "meta_classification_type": "U",
        "meta_norad_cat_id": 39586,
        "meta_element_set_no": 999,
        "meta_rev_at_epoch": 61018,
        "meta_bstar": 0.00043436803,
        "meta_mean_motion_dot": 9.7e-06,
        "meta_mean_motion_ddot": 0,
        "tle_line1": "1 39586U 93036BUR 25349.99314877  .00000970  00000+0  43437-3 0  9992",
        "tle_line2": "2 39586  74.0082 222.4068 0100886 356.2296  66.1426 14.21232237610182"
      },
      "geometry": {
        "type": "Point",
        "coordinates": [
          22.707996729889253,
          -1.9397661952240002
        ]
      }
    },
    {
      "type": "Feature",
      "properties": {
        "norad_id": 39591,
        "name": "COSMOS 2251 DEB",
        "group": "cosmos-2251-debris",
        "lat": 62.88164728320541,
        "lon": -106.178228383728,
        "alt_km": 748.8275719239755,
        "timestamp": "2025-12-27T06:41:31.324037+00:00",
        "meta_object_name": "COSMOS 2251 DEB",
        "meta_object_id": "1993-036BUW",
        "meta_epoch": "2025-12-23T22:31:12.958752",
        "meta_mean_motion": 14.41832827,
        "meta_eccentricity": 0.0029541,
        "meta_inclination": 74.019,
        "meta_ra_of_asc_node": 225.9904,
        "meta_arg_of_pericenter": 336.8177,
        "meta_mean_anomaly": 38.5171,
        "meta_ephemeris_type": 0,
        "meta_classification_type": "U",
        "meta_norad_cat_id": 39591,
        "meta_element_set_no": 999,
        "meta_rev_at_epoch": 61938,
        "meta_bstar": 0.00024268,
        "meta_mean_motion_dot": 7.71e-06,
        "meta_mean_motion_ddot": 0,
        "tle_line1": "1 39591U 93036BUW 25357.93834443  .00000771  00000+0  24268-3 0  9997",
        "tle_line2": "2 39591  74.0190 225.9904 0029541 336.8177  38.5171 14.41832827619389"
      },
      "geometry": {
        "type": "Point",
        "coordinates": [
          -106.178228383728,
          62.88164728320541
        ]
      }
    },
    {
      "type": "Feature",
      "properties": {
        "norad_id": 40218,
        "name": "COSMOS 2251 DEB",
        "group": "cosmos-2251-debris",
        "lat": -46.93326498923888,
        "lon": -155.94994418638512,
        "alt_km": 747.6500576154076,
        "timestamp": "2025-12-27T06:41:31.324047+00:00",
        "meta_object_name": "COSMOS 2251 DEB",
        "meta_object_id": "1993-036BUX",
        "meta_epoch": "2025-12-14T10:48:31.251744",
        "meta_mean_motion": 14.41597705,
        "meta_eccentricity": 0.00168728,
        "meta_inclination": 74.0298,
        "meta_ra_of_asc_node": 245.6562,
        "meta_arg_of_pericenter": 328.6,
        "meta_mean_anomaly": 31.4147,
        "meta_ephemeris_type": 0,
        "meta_classification_type": "U",
        "meta_norad_cat_id": 40218,
        "meta_element_set_no": 999,
        "meta_rev_at_epoch": 58886,
        "meta_bstar": 0.00046023204,
        "meta_mean_motion_dot": 1.474e-05,
        "meta_mean_motion_ddot": 0,
        "tle_line1": "1 40218U 93036BUX 25348.45036171  .00001474  00000+0  46023-3 0  9998",
        "tle_line2": "2 40218  74.0298 245.6562 0016872 328.6000  31.4147 14.41597705588868"
      },
      "geometry": {
        "type": "Point",
        "coordinates": [
          -155.94994418638512,
          -46.93326498923888
        ]
      }
    },
    {
      "type": "Feature",
      "properties": {
        "norad_id": 40223,
        "name": "COSMOS 2251 DEB",
        "group": "cosmos-2251-debris",
        "lat": -35.734634931534295,
        "lon": 46.80656432074933,
        "alt_km": 550.7061777066947,
        "timestamp": "2025-12-27T06:41:31.324057+00:00",
        "meta_object_name": "COSMOS 2251 DEB",
        "meta_object_id": "1993-036BVC",
        "meta_epoch": "2025-12-26T10:11:18.921984",
        "meta_mean_motion": 15.0510162,
        "meta_eccentricity": 0.0014982,
        "meta_inclination": 73.9365,
        "meta_ra_of_asc_node": 60.5317,
        "meta_arg_of_pericenter": 271.0651,
        "meta_mean_anomaly": 104.3247,
        "meta_ephemeris_type": 0,
        "meta_classification_type": "U",
        "meta_norad_cat_id": 40223,
        "meta_element_set_no": 999,
        "meta_rev_at_epoch": 59580,
        "meta_bstar": 0.0038511,
        "meta_mean_motion_dot": 0.00055337,
        "meta_mean_motion_ddot": 0,
        "tle_line1": "1 40223U 93036BVC 25360.42452456  .00055337  00000+0  38511-2 0  9992",
        "tle_line2": "2 40223  73.9365  60.5317 0014982 271.0651 104.3247 15.05101620595803"
      },
      "geometry": {
        "type": "Point",
        "coordinates": [
          46.80656432074933,
          -35.734634931534295
        ]
      }
    },
    {
      "type": "Feature",
      "properties": {
        "norad_id": 40228,
        "name": "COSMOS 2251 DEB",
        "group": "cosmos-2251-debris",
        "lat": 10.717881404717437,
        "lon": 50.550619937992664,
        "alt_km": 765.8997970163737,
        "timestamp": "2025-12-27T06:41:31.324068+00:00",
        "meta_object_name": "COSMOS 2251 DEB",
        "meta_object_id": "1993-036BVH",
        "meta_epoch": "2025-12-24T10:27:05.872032",
        "meta_mean_motion": 14.41015471,
        "meta_eccentricity": 0.00242372,
        "meta_inclination": 74.054,
        "meta_ra_of_asc_node": 238.9073,
        "meta_arg_of_pericenter": 298.7389,
        "meta_mean_anomaly": 245.8492,
        "meta_ephemeris_type": 0,
        "meta_classification_type": "U",
        "meta_norad_cat_id": 40228,
        "meta_element_set_no": 999,
        "meta_rev_at_epoch": 59089,
        "meta_bstar": 0.00026003762,
        "meta_mean_motion_dot": 8.12e-06,
        "meta_mean_motion_ddot": 0,
        "tle_line1": "1 40228U 93036BVH 25358.43548463  .00000812  00000+0  26004-3 0  9992",
        "tle_line2": "2 40228  74.0540 238.9073 0024237 298.7389 245.8492 14.41015471590897"
      },
      "geometry": {
        "type": "Point",
        "coordinates": [
          50.550619937992664,
          10.717881404717437
        ]
      }
    }
  ]
}